ONEWEB-0564             
1 55801U 23029F   25183.89582922  .00000024  00000+0  28201-4 0  9991
2 55801  87.9268 344.0524 0001438  96.0254 264.1043 13.20769978115048
ONEWEB-0638             
1 55802U 23029G   25183.86020816  .00000252  00000+0  64452-3 0  9998
2 55802  87.9040 359.2676 0001613 108.8225 251.3080 13.14503205113508
ONEWEB-0639             
1 55803U 23029H   25183.81975473 -.00000021  00000+0 -85909-4 0  9999
2 55803  87.9217  14.4361 0002961  98.1183 262.0286 13.19724862112827
ONEWEB-0640             
1 55804U 23029J   25183.94583527  .00000182  00000+0  45637-3 0  9998
2 55804  87.9040 359.2382 0002002 114.1752 245.9588 13.14502093113531
ONEWEB-0641             
1 55805U 23029K   25183.81502811 -.00000015  00000+0 -69571-4 0  9993
2 55805  87.9213  14.4084 0002068  90.7361 269.4009 13.19725561112833
ONEWEB-0642             
1 55806U 23029L   25183.81028121 -.00000002  00000+0 -36704-4 0  9999
2 55806  87.9213  14.4469 0002793  90.8241 269.3212 13.19724033112821
ONEWEB-0643             
1 55807U 23029M   25183.91570922 -.00000009  00000+0 -59021-4 0  9996
2 55807  87.9039 359.2263 0002549  84.8895 275.2525 13.14502475113505
ONEWEB-0644             
1 55808U 23029N   25183.80554614  .00000039  00000+0  64272-4 0  9990
2 55808  87.9220  14.4521 0002375  90.3345 269.8060 13.19724672112821
